{
  "type": "FeatureCollection",
  "features": [
    {
      "type": "Feature",
      "properties": {
        "norad_id": 33924,
        "name": "COSMOS 2251 DEB",
        "group": "cosmos-2251-debris",
        "lat": -59.1509772079158,
        "lon": -102.02749022375436,
        "alt_km": 808.5529307729421,
        "timestamp": "2025-12-02T08:59:33.107770+00:00",
        "meta_object_name": "COSMOS 2251 DEB",
        "meta_object_id": "1993-036ED",
        "meta_epoch": "2025-12-02T03:56:52.063872",
        "meta_mean_motion": 13.50187565,
        "meta_eccentricity": 0.0404071,
        "meta_inclination": 73.9131,
        "meta_ra_of_asc_node": 287.1998,
        "meta_arg_of_pericenter": 324.5119,
        "meta_mean_anomaly": 32.9701,
        "meta_ephemeris_type": 0,
        "meta_classification_type": "U",
        "meta_norad_cat_id": 33924,
        "meta_element_set_no": 999,
        "meta_rev_at_epoch": 82596,
        "meta_bstar": 0.0013482,
        "meta_mean_motion_dot": 1.406e-05,
        "meta_mean_motion_ddot": 0,
        "tle_line1": "1 33924U 93036ED  25336.16449148  .00001406  00000+0  13482-2 0  9998",
        "tle_line2": "2 33924  73.9131 287.1998 0404071 324.5119  32.9701 13.50187565825965"
      },
      "geometry": {
        "type": "Point",
        "coordinates": [
          -102.02749022375436,
          -59.1509772079158
        ]
      }
    },
    {
      "type": "Feature",
      "properties": {
        "norad_id": 33928,
        "name": "COSMOS 2251 DEB",
        "group": "cosmos-2251-debris",
        "lat": -8.945358693241516,
        "lon": -105.31980977293154,
        "alt_km": 781.3043696357317,
        "timestamp": "2025-12-02T08:59:33.107780+00:00",
        "meta_object_name": "COSMOS 2251 DEB",
        "meta_object_id": "1993-036EH",
        "meta_epoch": "2025-12-01T23:49:38.992224",
        "meta_mean_motion": 14.47370974,
        "meta_eccentricity": 0.0060947,
        "meta_inclination": 73.9259,
        "meta_ra_of_asc_node": 72.7975,
        "meta_arg_of_pericenter": 9.298,
        "meta_mean_anomaly": 350.929,
        "meta_ephemeris_type": 0,
        "meta_classification_type": "U",
        "meta_norad_cat_id": 33928,
        "meta_element_set_no": 999,
        "meta_rev_at_epoch": 88489,
        "meta_bstar": 0.00028768,
        "meta_mean_motion_dot": 1.05e-05,
        "meta_mean_motion_ddot": 0,
        "tle_line1": "1 33928U 93036EH  25335.99281241  .00001050  00000+0  28768-3 0  9999",
        "tle_line2": "2 33928  73.9259  72.7975 0060947   9.2980 350.9290 14.47370974884894"
      },
      "geometry": {
        "type": "Point",
        "coordinates": [
          -105.31980977293154,
          -8.945358693241516
        ]
      }
    },
    {
      "type": "Feature",
      "properties": {
        "norad_id": 33932,
        "name": "COSMOS 2251 DEB",
        "group": "cosmos-2251-debris",
        "lat": -65.2811973062954,
        "lon": -63.421388328891815,
        "alt_km": 783.904052667046,
        "timestamp": "2025-12-02T08:59:33.107790+00:00",
        "meta_object_name": "COSMOS 2251 DEB",
        "meta_object_id": "1993-036EM",
        "meta_epoch": "2025-12-02T02:38:46.031136",
        "meta_mean_motion": 14.38706879,
        "meta_eccentricity": 0.0034832,
        "meta_inclination": 74.0336,
        "meta_ra_of_asc_node": 335.5222,
        "meta_arg_of_pericenter": 54.8475,
        "meta_mean_anomaly": 305.5934,
        "meta_ephemeris_type": 0,
        "meta_classification_type": "U",
        "meta_norad_cat_id": 33932,
        "meta_element_set_no": 999,
        "meta_rev_at_epoch": 87845,
        "meta_bstar": 0.00050861,
        "meta_mean_motion_dot": 1.546e-05,
        "meta_mean_motion_ddot": 0,
        "tle_line1": "1 33932U 93036EM  25336.11025499  .00001546  00000+0  50861-3 0  9999",
        "tle_line2": "2 33932  74.0336 335.5222 0034832  54.8475 305.5934 14.38706879878454"
      },
      "geometry": {
        "type": "Point",
        "coordinates": [
          -63.421388328891815,
          -65.2811973062954
        ]
      }
    },
    {
      "type": "Feature",
      "properties": {
        "norad_id": 33933,
        "name": "COSMOS 2251 DEB",
        "group": "cosmos-2251-debris",
        "lat": -25.714704557990306,
        "lon": 71.13074517563432,
        "alt_km": 808.4830197351412,
        "timestamp": "2025-12-02T08:59:33.107801+00:00",
        "meta_object_name": "COSMOS 2251 DEB",
        "meta_object_id": "1993-036EN",
        "meta_epoch": "2025-12-01T09:40:06.576960",
        "meta_mean_motion": 14.33456737,
        "meta_eccentricity": 0.0070897,
        "meta_inclination": 74.0889,
        "meta_ra_of_asc_node": 80.797,
        "meta_arg_of_pericenter": 92.6258,
        "meta_mean_anomaly": 268.3012,
        "meta_ephemeris_type": 0,
        "meta_classification_type": "U",
        "meta_norad_cat_id": 33933,
        "meta_element_set_no": 999,
        "meta_rev_at_epoch": 87622,
        "meta_bstar": 0.00039720634,
        "meta_mean_motion_dot": 1.103e-05,
        "meta_mean_motion_ddot": 0,
        "tle_line1": "1 33933U 93036EN  25335.40285390  .00001103  00000+0  39721-3 0  9990",
        "tle_line2": "2 33933  74.0889  80.7970 0070897  92.6258 268.3012 14.33456737876223"
      },
      "geometry": {
        "type": "Point",
        "coordinates": [
          71.13074517563432,
          -25.714704557990306
        ]
      }
    },
    {
      "type": "Feature",
      "properties": {
        "norad_id": 33934,
        "name": "COSMOS 2251 DEB",
        "group": "cosmos-2251-debris",
        "lat": -36.02974587378726,
        "lon": -47.66614537755432,
        "alt_km": 692.3360435026789,
        "timestamp": "2025-12-02T08:59:33.107811+00:00",
        "meta_object_name": "COSMOS 2251 DEB",
        "meta_object_id": "1993-036EP",
        "meta_epoch": "2025-12-02T03:03:36.037152",
        "meta_mean_motion": 14.58948135,
        "meta_eccentricity": 0.0016034,
        "meta_inclination": 74.0363,
        "meta_ra_of_asc_node": 120.7877,
        "meta_arg_of_pericenter": 244.2511,
        "meta_mean_anomaly": 115.6999,
        "meta_ephemeris_type": 0,
        "meta_classification_type": "U",
        "meta_norad_cat_id": 33934,
        "meta_element_set_no": 999,
        "meta_rev_at_epoch": 88584,
        "meta_bstar": 0.0011948,
        "meta_mean_motion_dot": 5.589e-05,
        "meta_mean_motion_ddot": 0,
        "tle_line1": "1 33934U 93036EP  25336.12750043  .00005589  00000+0  11948-2 0  9995",
        "tle_line2": "2 33934  74.0363 120.7877 0016034 244.2511 115.6999 14.58948135885843"
      },
      "geometry": {
        "type": "Point",
        "coordinates": [
          -47.66614537755432,
          -36.02974587378726
        ]
      }
    },
    {
      "type": "Feature",
      "properties": {
        "norad_id": 33936,
        "name": "COSMOS 2251 DEB",
        "group": "cosmos-2251-debris",
        "lat": 70.49796689230917,
        "lon": -176.72241022190744,
        "alt_km": 693.2857529830171,
        "timestamp": "2025-12-02T08:59:33.107821+00:00",
        "meta_object_name": "COSMOS 2251 DEB",
        "meta_object_id": "1993-036ER",
        "meta_epoch": "2025-12-01T22:39:43.637184",
        "meta_mean_motion": 14.60146127,
        "meta_eccentricity": 0.0028221,
        "meta_inclination": 74.0192,
        "meta_ra_of_asc_node": 58.1139,
        "meta_arg_of_pericenter": 215.2867,
        "meta_mean_anomaly": 144.6432,
        "meta_ephemeris_type": 0,
        "meta_classification_type": "U",
        "meta_norad_cat_id": 33936,
        "meta_element_set_no": 999,
        "meta_rev_at_epoch": 88732,
        "meta_bstar": 0.00096084,
        "meta_mean_motion_dot": 4.624e-05,
        "meta_mean_motion_ddot": 0,
        "tle_line1": "1 33936U 93036ER  25335.94425506  .00004624  00000+0  96084-3 0  9993",
        "tle_line2": "2 33936  74.0192  58.1139 0028221 215.2867 144.6432 14.60146127887326"
      },
      "geometry": {
        "type": "Point",
        "coordinates": [
          -176.72241022190744,
          70.49796689230917
        ]
      }
    },
    {
      "type": "Feature",
      "properties": {
        "norad_id": 33938,
        "name": "COSMOS 2251 DEB",
        "group": "cosmos-2251-debris",
        "lat": 72.7255887993419,
        "lon": -20.38288638780238,
        "alt_km": 739.0476867531997,
        "timestamp": "2025-12-02T08:59:33.107831+00:00",
        "meta_object_name": "COSMOS 2251 DEB",
        "meta_object_id": "1993-036ET",
        "meta_epoch": "2025-12-02T04:17:08.372832",
        "meta_mean_motion": 14.46737813,
        "meta_eccentricity": 0.001684,
        "meta_inclination": 74.0461,
        "meta_ra_of_asc_node": 226.8923,
        "meta_arg_of_pericenter": 309.9112,
        "meta_mean_anomaly": 205.6335,
        "meta_ephemeris_type": 0,
        "meta_classification_type": "U",
        "meta_norad_cat_id": 33938,
        "meta_element_set_no": 999,
        "meta_rev_at_epoch": 88247,
        "meta_bstar": 0.00054706,
        "meta_mean_motion_dot": 1.956e-05,
        "meta_mean_motion_ddot": 0,
        "tle_line1": "1 33938U 93036ET  25336.17856913  .00001956  00000+0  54706-3 0  9991",
        "tle_line2": "2 33938  74.0461 226.8923 0016840 309.9112 205.6335 14.46737813882473"
      },
      "geometry": {
        "type": "Point",
        "coordinates": [
          -20.38288638780238,
          72.7255887993419
        ]
      }
    }
  ]
}